0 FENGYUN 1C DEB
1 38723U 99025ETQ 13287.74200359  .00003487  00000-0  16180-2 0   541
2 38723 099.5177 102.8006 0048641 197.5557 162.4537 14.20794149136157
0 FENGYUN 1C DEB
1 38723U 99025ETQ 13288.30536917  .00003571  00000-0  16550-2 0   552
2 38723 099.5097 103.3857 0050578 190.2497 169.7795 14.20799461136230
0 FENGYUN 1C DEB
1 38723U 99025ETQ 13292.74190451  .00003952  00000-0  18304-2 0   567
2 38723 099.4956 108.1155 0047124 184.3378 175.9052 14.20841511136860
0 FENGYUN 1C DEB
1 38723U 99025ETQ 13293.72774860  .00004038  00000-0  18698-2 0   571
2 38723 099.4939 109.1708 0046404 182.3212 177.8093 14.20851573137003
0 FENGYUN 1C DEB
1 38723U 99025ETQ 13294.29109661  .00004133  00000-0  19116-2 0   588
2 38723 099.4924 109.7656 0048150 179.2059 180.9640 14.20858424137082
0 FENGYUN 1C DEB
1 38723U 99025ETQ 13295.27695321  .00004437  00000-0  20490-2 0   595
2 38723 099.4939 110.8395 0049099 173.9568 186.2234 14.20870045137227
